start=new Date('2021-10-05T00:00:00.000Z').valueOf();
sats=[{"EPOCH":"2021-10-04T15:31:39.136800","MEAN_ANOMALY":"286.4099","DECAY_DATE":null,"OBJECT_NAME":"STARLINK-2164","FILE":"3144803","BSTAR":"-0.00010080000000","COUNTRY_CODE":"US","SITE":"AFETR","EPHEMERIS_TYPE":"0","OBJECT_ID":"2021-017AE","INCLINATION":"53.0558","TLE_LINE1":"1 47750U 21017AE  21277.64698075 -.00001782  00000-0 -10080-3 0  9990","CENTER_NAME":"EARTH","ELEMENT_SET_NO":"999","TIME_SYSTEM":"UTC","APOAPSIS":"548.063","ECCENTRICITY":"0.00012000","LAUNCH_DATE":"2021-03-04","PERIAPSIS":"546.401","RCS_SIZE":"LARGE","SEMIMAJOR_AXIS":"6925.367","MEAN_MOTION":"15.06393918","ARG_OF_PERICENTER":"73.7022","CLASSIFICATION_TYPE":"U","RA_OF_ASC_NODE":"260.7993","REF_FRAME":"TEME","OBJECT_TYPE":"PAYLOAD","MEAN_MOTION_DDOT":"0.0000000000000","REV_AT_EPOCH":"3414","MEAN_ELEMENT_THEORY":"SGP4","GP_ID":"186225574","MEAN_MOTION_DOT":"-0.00001782","NORAD_CAT_ID":"47750","TLE_LINE2":"2 47750  53.0558 260.7993 0001200  73.7022 286.4099 15.06393918 34146","PERIOD":"95.593"},{"BSTAR":"0.00001146300000","FILE":"3144407","COUNTRY_CODE":"US","EPOCH":"2021-10-04T08:17:44.916000","OBJECT_NAME":"STARLINK-2168","DECAY_DATE":null,"MEAN_ANOMALY":"288.9501","CENTER_NAME":"EARTH","ELEMENT_SET_NO":"999","INCLINATION":"53.0497","OBJECT_ID":"2021-017AF","SITE":"AFETR","EPHEMERIS_TYPE":"0","TLE_LINE1":"1 47751U 21017AF  21277.34565875 -.00000111  00000-0  11463-4 0  9990","RCS_SIZE":"LARGE","SEMIMAJOR_AXIS":"6925.372","APOAPSIS":"548.296","TIME_SYSTEM":"UTC","LAUNCH_DATE":"2021-03-04","PERIAPSIS":"546.177","ECCENTRICITY":"0.00015300","MEAN_ELEMENT_THEORY":"SGP4","REV_AT_EPOCH":"3424","PERIOD":"95.593","TLE_LINE2":"2 47751  53.0497 252.1693 0001530  71.1654 288.9501 15.06392441 34246","NORAD_CAT_ID":"47751","MEAN_MOTION_DOT":"-0.00000111","GP_ID":"186193619","REF_FRAME":"TEME","RA_OF_ASC_NODE":"252.1693","CLASSIFICATION_TYPE":"U","MEAN_MOTION":"15.06392441","ARG_OF_PERICENTER":"71.1654","MEAN_MOTION_DDOT":"0.0000000000000","OBJECT_TYPE":"PAYLOAD"},{"RCS_SIZE":"MEDIUM","SEMIMAJOR_AXIS":"6925.345","TIME_SYSTEM":"UTC","APOAPSIS":"548.036","PERIAPSIS":"546.383","LAUNCH_DATE":"2021-03-04","ECCENTRICITY":"0.00011940","MEAN_ELEMENT_THEORY":"SGP4","REV_AT_EPOCH":"3408","MEAN_MOTION_DOT":"-0.00000577","GP_ID":"186193370","PERIOD":"95.592","TLE_LINE2":"2 47752  53.0571 267.0065 0001194  72.3478 287.7641 15.06401301 34081","NORAD_CAT_ID":"47752","CLASSIFICATION_TYPE":"U","MEAN_MOTION":"15.06401301","ARG_OF_PERICENTER":"72.3478","REF_FRAME":"TEME","RA_OF_ASC_NODE":"267.0065","OBJECT_TYPE":"PAYLOAD","MEAN_MOTION_DDOT":"0.0000000000000","FILE":"3144407","BSTAR":"-0.00001985600000","COUNTRY_CODE":"US","EPOCH":"2021-10-04T09:06:09.906048","MEAN_ANOMALY":"287.7641","OBJECT_NAME":"STARLINK-2169","DECAY_DATE":null,"CENTER_NAME":"EARTH","ELEMENT_SET_NO":"999","SITE":"AFETR","EPHEMERIS_TYPE":"0","INCLINATION":"53.0571","OBJECT_ID":"2021-017AG","TLE_LINE1":"1 47752U 21017AG  21277.37928132 -.00000577  00000-0 -19856-4 0  9994"},{"ELEMENT_SET_NO":"999","CENTER_NAME":"EARTH","TLE_LINE1":"1 47753U 21017AH  21277.68660474 -.00000221  00000-0  40488-5 0  9992","EPHEMERIS_TYPE":"0","SITE":"AFETR","INCLINATION":"53.0528","OBJECT_ID":"2021-017AH","COUNTRY_CODE":"US","FILE":"3144803","BSTAR":"0.00000404880000","MEAN_ANOMALY":"285.1437","DECAY_DATE":null,"OBJECT_NAME":"STARLINK-2170","EPOCH":"2021-10-04T16:28:42.649536","MEAN_MOTION_DOT":"-0.00000221","GP_ID":"186226324","TLE_LINE2":"2 47753  53.0528 270.6123 0001458  74.9713 285.1437 15.06399476 34053","PERIOD":"95.592","NORAD_CAT_ID":"47753","REV_AT_EPOCH":"3405","MEAN_ELEMENT_THEORY":"SGP4","OBJECT_TYPE":"PAYLOAD","MEAN_MOTION_DDOT":"0.0000000000000","CLASSIFICATION_TYPE":"U","MEAN_MOTION":"15.06399476","ARG_OF_PERICENTER":"74.9713","REF_FRAME":"TEME","RA_OF_ASC_NODE":"270.6123","SEMIMAJOR_AXIS":"6925.350","RCS_SIZE":"LARGE","PERIAPSIS":"546.205","LAUNCH_DATE":"2021-03-04","ECCENTRICITY":"0.00014580","TIME_SYSTEM":"UTC","APOAPSIS":"548.225"},{"TLE_LINE1":"1 47754U 21017AJ  21277.45807832 -.00000632  00000-0 -23532-4 0  9996","INCLINATION":"53.0553","OBJECT_ID":"2021-017AJ","SITE":"AFETR","EPHEMERIS_TYPE":"0","ELEMENT_SET_NO":"999","CENTER_NAME":"EARTH","DECAY_DATE":null,"OBJECT_NAME":"STARLINK-2171","MEAN_ANOMALY":"280.9866","EPOCH":"2021-10-04T10:59:37.966848","COUNTRY_CODE":"US","BSTAR":"-0.00002353200000","FILE":"3144407","MEAN_MOTION_DDOT":"0.0000000000000","OBJECT_TYPE":"PAYLOAD","REF_FRAME":"TEME","RA_OF_ASC_NODE":"271.6459","CLASSIFICATION_TYPE":"U","MEAN_MOTION":"15.06384968","ARG_OF_PERICENTER":"79.1277","TLE_LINE2":"2 47754  53.0553 271.6459 0001374  79.1277 280.9866 15.06384968 33984","PERIOD":"95.593","NORAD_CAT_ID":"47754","MEAN_MOTION_DOT":"-0.00000632","GP_ID":"186192368","REV_AT_EPOCH":"3398","MEAN_ELEMENT_THEORY":"SGP4","LAUNCH_DATE":"2021-03-04","ECCENTRICITY":"0.00013740","PERIAPSIS":"546.308","APOAPSIS":"548.211","TIME_SYSTEM":"UTC","SEMIMAJOR_AXIS":"6925.395","RCS_SIZE":"LARGE"},{"EPOCH":"2021-10-04T17:02:31.018272","MEAN_ANOMALY":"303.1959","OBJECT_NAME":"STARLINK-2172","DECAY_DATE":null,"FILE":"3144803","BSTAR":"0.00001871400000","COUNTRY_CODE":"US","SITE":"AFETR","EPHEMERIS_TYPE":"0","OBJECT_ID":"2021-017AK","INCLINATION":"53.0573","TLE_LINE1":"1 47755U 21017AK  21277.71008123 -.00000003  00000-0  18714-4 0  9999","CENTER_NAME":"EARTH","ELEMENT_SET_NO":"999","TIME_SYSTEM":"UTC","APOAPSIS":"547.963","PERIAPSIS":"546.479","LAUNCH_DATE":"2021-03-04","ECCENTRICITY":"0.00010720","RCS_SIZE":"LARGE","SEMIMAJOR_AXIS":"6925.356","MEAN_MOTION":"15.06397569","ARG_OF_PERICENTER":"56.9133","CLASSIFICATION_TYPE":"U","RA_OF_ASC_NODE":"265.5235","REF_FRAME":"TEME","OBJECT_TYPE":"PAYLOAD","MEAN_MOTION_DDOT":"0.0000000000000","MEAN_ELEMENT_THEORY":"SGP4","REV_AT_EPOCH":"3408","GP_ID":"186225825","MEAN_MOTION_DOT":"-0.00000003","NORAD_CAT_ID":"47755","TLE_LINE2":"2 47755  53.0573 265.5235 0001072  56.9133 303.1959 15.06397569 34084","PERIOD":"95.592"},{"RCS_SIZE":"LARGE","SEMIMAJOR_AXIS":"6925.350","APOAPSIS":"548.285","TIME_SYSTEM":"UTC","ECCENTRICITY":"0.00015460","LAUNCH_DATE":"2021-03-04","PERIAPSIS":"546.144","MEAN_ELEMENT_THEORY":"SGP4","REV_AT_EPOCH":"3406","PERIOD":"95.592","TLE_LINE2":"2 47756  53.0556 270.4764 0001546  74.0705 286.0455 15.06399595 34069","NORAD_CAT_ID":"47756","MEAN_MOTION_DOT":"-0.00000021","GP_ID":"186226077","REF_FRAME":"TEME","RA_OF_ASC_NODE":"270.4764","CLASSIFICATION_TYPE":"U","MEAN_MOTION":"15.06399595","ARG_OF_PERICENTER":"74.0705","MEAN_MOTION_DDOT":"0.0000000000000","OBJECT_TYPE":"PAYLOAD","BSTAR":"0.00001747400000","FILE":"3144803","COUNTRY_CODE":"US","EPOCH":"2021-10-04T17:16:28.261056","DECAY_DATE":null,"OBJECT_NAME":"STARLINK-2174","MEAN_ANOMALY":"286.0455","CENTER_NAME":"EARTH","ELEMENT_SET_NO":"999","INCLINATION":"53.0556","OBJECT_ID":"2021-017AL","SITE":"AFETR","EPHEMERIS_TYPE":"0","TLE_LINE1":"1 47756U 21017AL  21277.71977154 -.00000021  00000-0  17474-4 0  9991"},{"ARG_OF_PERICENTER":"68.8533","MEAN_MOTION":"15.06394424","CLASSIFICATION_TYPE":"U","RA_OF_ASC_NODE":"270.5373","REF_FRAME":"TEME","OBJECT_TYPE":"PAYLOAD","MEAN_MOTION_DDOT":"0.0000000000000","MEAN_ELEMENT_THEORY":"SGP4","REV_AT_EPOCH":"3400","GP_ID":"186226824","MEAN_MOTION_DOT":"0.00001164","NORAD_CAT_ID":"47757","TLE_LINE2":"2 47757  53.0561 270.5373 0001163  68.8533 291.2580 15.06394424 34005","PERIOD":"95.592","TIME_SYSTEM":"UTC","APOAPSIS":"548.036","LAUNCH_DATE":"2021-03-04","PERIAPSIS":"546.425","ECCENTRICITY":"0.00011630","RCS_SIZE":"LARGE","SEMIMAJOR_AXIS":"6925.366","SITE":"AFETR","EPHEMERIS_TYPE":"0","OBJECT_ID":"2021-017AM","INCLINATION":"53.0561","TLE_LINE1":"1 47757U 21017AM  21277.70503254  .00001164  00000-0  97024-4 0  9994","CENTER_NAME":"EARTH","ELEMENT_SET_NO":"999","EPOCH":"2021-10-04T16:55:14.811456","MEAN_ANOMALY":"291.2580","DECAY_DATE":null,"OBJECT_NAME":"STARLINK-2175","FILE":"3144803","BSTAR":"0.00009702400000","COUNTRY_CODE":"US"},{"RCS_SIZE":"LARGE","SEMIMAJOR_AXIS":"6925.357","TIME_SYSTEM":"UTC","APOAPSIS":"551.821","ECCENTRICITY":"0.00066410","LAUNCH_DATE":"2021-03-04","PERIAPSIS":"542.623","REV_AT_EPOCH":"3406","MEAN_ELEMENT_THEORY":"SGP4","GP_ID":"186225575","MEAN_MOTION_DOT":"-0.00000509","NORAD_CAT_ID":"47758","PERIOD":"95.592","TLE_LINE2":"2 47758  53.0572 270.5244 0006641 261.5587  98.4650 15.06397280 34066","ARG_OF_PERICENTER":"261.5587","MEAN_MOTION":"15.06397280","CLASSIFICATION_TYPE":"U","RA_OF_ASC_NODE":"270.5244","REF_FRAME":"TEME","OBJECT_TYPE":"PAYLOAD","MEAN_MOTION_DDOT":"0.0000000000000","FILE":"3144803","BSTAR":"-0.00001515400000","COUNTRY_CODE":"US","EPOCH":"2021-10-04T17:00:32.145696","MEAN_ANOMALY":"98.4650","OBJECT_NAME":"STARLINK-2176","DECAY_DATE":null,"CENTER_NAME":"EARTH","ELEMENT_SET_NO":"999","EPHEMERIS_TYPE":"0","SITE":"AFETR","OBJECT_ID":"2021-017AN","INCLINATION":"53.0572","TLE_LINE1":"1 47758U 21017AN  21277.70870539 -.00000509  00000-0 -15154-4 0  9996"},{"TLE_LINE1":"1 47759U 21017AP  21277.65065212 -.00000433  00000-0 -48596-6 0  9999","OBJECT_ID":"2021-017AP","INCLINATION":"53.0541","EPHEMERIS_TYPE":"0","SITE":"AFETR","ELEMENT_SET_NO":"999","CENTER_NAME":"EARTH","DECAY_DATE":null,"OBJECT_NAME":"STARLINK-2177","MEAN_ANOMALY":"271.5647","EPOCH":"2021-10-04T15:36:56.343168","COUNTRY_CODE":"US","BSTAR":"-0.00000048596000","FILE":"3144803","MEAN_MOTION_DDOT":"0.0000000000000","OBJECT_TYPE":"PAYLOAD","RA_OF_ASC_NODE":"257.7779","REF_FRAME":"TEME","ARG_OF_PERICENTER":"88.5500","MEAN_MOTION":"15.42155161","CLASSIFICATION_TYPE":"U","NORAD_CAT_ID":"47759","PERIOD":"93.376","TLE_LINE2":"2 47759  53.0541 257.7779 0001243  88.5500 271.5647 15.42155161 34226","GP_ID":"186225326","MEAN_MOTION_DOT":"-0.00000433","REV_AT_EPOCH":"3422","MEAN_ELEMENT_THEORY":"SGP4","LAUNCH_DATE":"2021-03-04","ECCENTRICITY":"0.00012430","PERIAPSIS":"438.904","APOAPSIS":"440.599","TIME_SYSTEM":"UTC","SEMIMAJOR_AXIS":"6817.887","RCS_SIZE":"LARGE"}];
